LANDSAT 9               
1 49260U 21088A   23314.77219744  .00000961  00000+0  22330-3 0  9992
2 49260  98.2155  22.7991 0001143  91.7122 268.4207 14.57111572112731
